#dP2020 10 24  0  0  0.00000000      96 __u+U ITR00 FIT  IAC
## 2128 518400.00000000   900.00000000 59146 0.0000000000000
+  119   C02C03C04C05C06C07C08C09C10C11C12C13C14C16C19C20C21
+        C22C23C24C25C26C27C28C29C30C32C33C34C35C36C37C38C39
+        C40C43C44C45E01E02E03E04E05E07E08E09E11E12E13E14E15
+        E18E19E21E24E25E26E27E30E31E33E36G01G02G03G04G05G06
+        G07G08G09G10G11G12G13G15G16G17G18G19G20G21G22G23G24
+        G25G26G27G28G29G30G31G32J01J02J03J07R01R02R03R04R05
+        R07R08R09R11R12R13R14R15R16R17R18R19R20R21R22R23R24
++        13 13 13 13  8  8  8  8  8  7  7  8  8  8  7  8  7
++         7  8  8  8  7  7  8  7  7  8  8  8  7  8  8 10 10
++        10 10  9  9  4  4  4  4  4  4  4  4  4  4  4  4  4
++         5  4  4  4  4  5  4  4  4  5  4  4  7  3  3  3  3
++         4  3  3  3  4  3  4  3  3  3  3  3  3  4  3  3  3
++         3  3  3  3  3  3  3  3  8  8  8  0  6  5  5  5  5
++         5  5  5  5  6  6  5  5  6  6  5  6  6  6  7  5  5
%c M  cc GPS ccc cccc cccc cccc cccc ccccc ccccc ccccc ccccc
%c cc cc ccc ccc cccc cccc cccc cccc ccccc ccccc ccccc ccccc
%f  0.0000000  0.000000000  0.00000000000  0.000000000000000
%f  0.0000000  0.000000000  0.00000000000  0.000000000000000
%i    0    0    0    0      0      0      0      0         0
%i    0    0    0    0      0      0      0      0         0
/* INFORMATION & ANALYSIS CENTER (IAC)            RAPID DATA
/* S/V CLOCKS ARE ALIGNED TO GNSS TIME                      
/* G:C1WC2W R:C1PC2P E:C1XC5X C:C2IC6I J:C1CC2S             
/* PCV:IGS14_2118 OL/AL:FES2004  NONE     YN ORB:CoN CLK:CoN
*  2020 10 24 18 30  0.00000000
PC02   4364.452828  41914.014501   -781.191511    788.468902
PC03 -14782.356601  39451.078147   -136.325081    806.180327
PC04 -39615.307638  14449.741699    511.286167   -242.288667
PC05  21878.987231  36025.871648  -1107.914248   -168.887801
PC06  -8336.602732  25909.767536 -31673.528209     67.209528
PC07 -23005.568394  25785.818687  24073.538983   -128.832919
PC08 -17137.849032  38282.942169   6074.988855   -635.290754
PC09   5360.480861  34553.373982 -23018.966161    893.614543
PC10  -7322.129133  27641.826103  31104.277586   -156.874358
PC11  18642.960970  14118.745855 -15208.103927   -706.246329
PC12  12246.116731  25046.488096   1642.547866    572.997095
PC13  -8202.975547  40815.035645  -7547.928895    711.285782
PC14  26027.974715   6064.377009  -8109.151873    404.483951
PC16  -4991.035430  27862.496784 -31101.165717   -599.814184
PC19 -27879.406521    297.745180   -995.815552    593.516500
PC20 -20822.118520 -10793.067156  15109.072900   -869.141285
PC21   1031.494898  15925.389401 -22885.639515   -704.601176
PC22 -18912.182593  11497.395328 -16988.257932   -778.751016
PC23  17333.606385 -21279.714476   5047.079544   -904.901598
PC24   9873.318878  13962.034629  22058.407982   -720.536320
PC25  19348.714815  -6271.694396  19096.554548   -802.661948
PC26  -4030.265215  24631.210412  12516.578018    879.040489
PC27  -5221.901017 -25346.071568 -10473.218421    421.185506
PC28   9375.189903 -14566.699693 -21871.141187   -154.308046
PC29 -18600.292896  -3948.014755  20418.986807    301.821906
PC30 -17351.792012 -20828.137821   6653.238742    394.234605
PC32  -1089.090289 -15938.068042  22885.651961   -898.054300
PC33  27896.039350   -392.507533    921.312113   -818.925486
PC34  17517.536715  20483.430258  -7205.666134   -824.668794
PC35  -9107.380319  14688.908338  21903.268895   -592.348964
PC36 -19426.816045   5577.285005 -19211.277890   -863.846904
PC37   5190.488802 -24682.600675 -11894.926017   -890.053127
PC38 -14409.157427  39685.931583   1657.185348    108.053792
PC39    132.428262  29961.631770 -29640.465995     24.272276
PC40 -14280.753472  22579.815938  32592.983329     94.122097
PC43  18760.837399   4396.280954 -20182.408614   -431.194926
PC44   5848.433973  25132.796240  10588.233762   -152.013112
PC45 -17224.220431  21392.744278  -4998.091794    264.538815
PE01  14312.293469 -21110.632277 -15009.165365   -968.244799
PE02 -14214.446340  21128.781951  15110.029704    171.336767
PE03  -3874.562012  17053.662219 -23890.762002   -357.365765
PE04 -16274.602665 -19979.366254  14562.004010   -633.777740
PE05 -22047.316135   4072.030968 -19330.095140   -335.156578
PE07  27188.780710  11175.909724   3521.272103   -452.919808
PE08  16674.005371  19768.942839 -14416.835956   6101.792063
PE09 -27250.707525 -10939.234687  -3666.136929   5888.028108
PE11 -15631.249309 -10447.189204  22857.139444   6476.215753
PE12  -7501.799468 -27180.770419   9016.035617   5540.462439
PE13  15542.486428  10734.313306 -22786.531615    405.068776
PE14  -5273.005736 -24184.961675 -16612.410471  -1201.608862
PE15   7652.405829  27091.861526  -9152.759202    846.952367
PE18  18235.481484  20906.588228   2185.036061  -1312.573061
PE19   6228.417086 -15857.517064  24203.353567    111.190204
PE21  25708.556941 -14421.293938   2696.014383   -628.330155
PE24 -22221.089713  -1422.842113 -19515.973608   -546.587875
PE25 -25739.826331  14342.846874  -2819.949475   -518.881138
PE26  14335.419968 -12466.665736 -22690.752893   2575.501155
PE27  22454.942645    901.826781  19273.334982    106.982886
PE30   5357.947319  16007.384983  24317.224082   3479.411938
PE31  -6036.077840 -15586.380134 -24413.370624   -475.129867
PE33   4723.616510 -27509.837352  -9839.440234   -462.948781
PE36 -14294.489441  11924.335734  23020.413371    490.151691
PG01 -13656.500766  16439.719097  15315.127177    813.425934
PG02  14278.154547   5155.883323 -21151.019320   -533.800167
PG03 -21828.574802  13107.448929  -7464.735109   -335.073497
PG04 -13009.277962   8509.719238 -21534.642749   -148.567963
PG05  23941.699134   -292.053948 -11849.152290    -24.193522
PG06   6904.441763  20186.647382 -15740.845645   -335.144498
PG07  -5576.729182  25674.112753   -662.297058   -400.189175
PG08 -19796.698546   -530.185242  17841.798887    -52.603193
PG09  -1229.220915  17477.296648 -20017.689406   -304.550597
PG10  -5087.456164 -14248.246700  21919.270273   -487.794906
PG11 -14248.262912   7775.298013  20589.066685   -127.865524
PG12  23698.305384 -10468.316417  -5705.557149     49.694044
PG13  20945.833455  10275.472530  12668.243668     57.952433
PG15  19747.730208  -2288.628451  17438.429693   -194.727589
PG16 -24543.224131  -1358.700794 -10844.585450   -226.889835
PG17  14003.765261  21193.323246   8257.963055    344.389767
PG18   5242.753090 -26005.717299    397.076332    311.874690
PG19  17851.589969  19689.466616    801.085183    -87.463397
PG20   7111.870232 -18326.009617  17669.062445    526.285420
PG21 -15849.292997   1665.877996  21978.314306     61.160895
PG22 -24441.812454  10120.607775   1293.706492   -739.209695
PG23   6499.740309 -16920.436508  19373.847765     90.829879
PG24  14517.514529 -13369.742141  17375.811614    -20.208634
PG25  14382.670177 -16312.882923 -15301.110165     10.602157
PG26 -16348.183384  -8518.324716 -19238.439475    300.615844
PG27 -22449.751071 -11164.492843   9124.217396   -425.830243
PG28   5364.931480  14257.475935  22333.233934    663.858240
PG29   4524.359307 -15339.354776 -21234.777415   -222.308091
PG30    972.258100  25005.807126   8615.356219   -323.349611
PG31  -8478.630902 -18196.430497 -17208.016087    -77.045065
PG32 -15220.606738 -20351.372927   8077.357986    360.927434
PJ01 -31696.997409  15272.169311 -18645.210485   -338.893888
PJ02 -28829.219361  30849.137451   5757.419298     -5.657135
PJ03 -25635.468927  23104.689975  29298.196707     -2.308549
PJ07      0.000000      0.000000      0.000000 999999.999999
PR01 -13492.860248   7455.511394 -20325.734078     69.545721
PR02   9348.688712  11897.658832 -20484.652756    451.387818
PR03  23008.433688   8261.936422  -7152.695506     24.358323
PR04  23435.446002     48.861590  10081.353199     59.135772
PR05  10703.546132  -8138.709978  21673.281132     59.849227
PR07 -23292.443876  -8097.448259   6643.944074    -40.959556
PR08 -23476.430176    -61.874206  -9955.988006    -55.322353
PR09   2306.763603 -16828.332724 -19036.588759      4.048831
PR11 -18704.777018  12398.303519 -12061.531491    -42.255502
PR12 -15009.682679  20157.662369   4462.510612    174.481507
PR13  -2597.271497  16809.457405  18999.185096    -45.676914
PR14  11532.123825   3330.721679  22526.562848     56.965380
PR15  18653.375606 -11699.022761  12903.673956    106.998539
PR16  14108.151671 -20528.847797  -5197.606858     -7.547999
PR17  12471.436669  16738.226516 -14686.796291    368.609555
PR18  10900.281062     85.185231 -23042.473916     53.840894
PR19   4311.866156 -15936.947000 -19437.507346   -116.794885
PR20  -6037.908265 -24666.856772  -2568.934749   -424.925949
PR21 -12485.989011 -15860.891799  15572.749644   -161.307080
PR22 -10547.674128   1006.448303  23194.646996    -78.876505
PR23      1.681126  21152.823865  14257.211170    340.451558
PR24   6572.042471  24591.710882   1859.404707     18.052587
EOF
